        SPCS","OBJECT_NAME":"STARLINK-22","OBJECT_ID":"2019-029B","CENTER_NAME":"EARTH","REF_FRAME":"TEME","TIME_SYSTEM":"UTC","MEAN_ELEMENT_THEORY":"SGP4","EPOCH":"2020-08-09T13:16:33.420576","MEAN_MOTION":16.42066597,"ECCENTRICITY":0.0004178,"INCLINATION":52.9807,"RA_OF_ASC_NODE":260.6619,"ARG_OF_PERICENTER":316.6235,"MEAN_ANOMALY":43.5158,"EPHEMERIS_TYPE":0,"CLASSIFICATION_TYPE":"U","NORAD_CAT_ID":44236,"ELEMENT_SET_NO":999,"REV_AT_EPOCH":6921,"BSTAR":0.0017311,"MEAN_MOTION_DOT":0.30875389,"MEAN_MOTION_DDOT":0.000012472,"SEMIMAJOR_AXIS":6538.447,"PERIOD":87.694,"APOAPSIS":163.044,"PERIAPSIS":157.581,"OBJECT_TYPE":"PAYLOAD","RCS_SIZE":"LARGE","COUNTRY_CODE":"US","LAUNCH_DATE":"2019-05-24","SITE":"AFETR","DECAY_DATE":"2020-08-09","DECAYED":1,"FILE":2798784,"GP_ID":159069947,"TLE_LINE0":"0
        STARLINK-22","TLE_LINE1":"1 44236U 19029B   20222.55316459 +.30875389 +12472-4
        +17311-2 0  9994","TLE_LINE2":"2 44236 052.9807 260.6619 0004178 316.6235
        043.5158 16.42066597069218"},"version":"v0.9","launch":"5eb87d30ffd86e000604b378","longitude":null,"latitude":null,"height_km":null,"velocity_kms":null,"id":"5eed770f096e590006985612"},{"spaceTrack":{"CCSDS_OMM_VERS":"2.0","COMMENT":"GENERATED
        VIA SPACE-TRACK.ORG API","CREATION_DATE":"2021-04-10T10:26:10","ORIGINATOR":"18
        SPCS","OBJECT_NAME":"STARLINK-26","OBJECT_ID":"2019-029F","CENTER_NAME":"EARTH","REF_FRAME":"TEME","TIME_SYSTEM":"UTC","MEAN_ELEMENT_THEORY":"SGP4","EPOCH":"2021-04-10T10:04:00.819552","MEAN_MOTION":16.41561846,"ECCENTRICITY":0.0004843,"INCLINATION":52.9634,"RA_OF_ASC_NODE":161.2403,"ARG_OF_PERICENTER":7.8568,"MEAN_ANOMALY":353.8836,"EPHEMERIS_TYPE":0,"CLASSIFICATION_TYPE":"U","NORAD_CAT_ID":44240,"ELEMENT_SET_NO":999,"REV_AT_EPOCH":10601,"BSTAR":0.0012328,"MEAN_MOTION_DOT":0.20637293,"MEAN_MOTION_DDOT":0.000012492,"SEMIMAJOR_AXIS":6539.788,"PERIOD":87.721,"APOAPSIS":164.82,"PERIAPSIS":158.486,"OBJECT_TYPE":"PAYLOAD","RCS_SIZE":"LARGE","COUNTRY_CODE":"US","LAUNCH_DATE":"2019-05-24","SITE":"AFETR","DECAY_DATE":"2021-04-10","DECAYED":1,"FILE":3013724,"GP_ID":175267022,"TLE_LINE0":"0
        STARLINK-26","TLE_LINE1":"1 44240U 19029F   21100.41945393  .20637293  12492-4  12328-2
        0  9999","TLE_LINE2":"2 44240  52.9634 161.2403 0004843   7.8568 353.8836
        16.41561846106011"},"version":"v0.9","launch":"5eb87d30ffd86e000604b378","longitude":null,"latitude":null,"height_km":null,"velocity_kms":null,"id":"5eed770f096e590006985613"},{"spaceTrack":{"CCSDS_OMM_VERS":"2.0","COMMENT":"GENERATED
        VIA SPACE-TRACK.ORG API","CREATION_DATE":"2020-09-26T00:36:08","ORIGINATOR":"18
        SPCS","OBJECT_NAME":"STARLINK-27","OBJECT_ID":"2019-029G","CENTER_NAME":"EARTH","REF_FRAME":"TEME","TIME_SYSTEM":"UTC","MEAN_ELEMENT_THEORY":"SGP4","EPOCH":"2020-09-25T23:58:24.572928","MEAN_MOTION":16.44528987,"ECCENTRICITY":0.0005013,"INCLINATION":52.9952,"RA_OF_ASC_NODE":62.9276,"ARG_OF_PERICENTER":292.5876,"MEAN_ANOMALY":67.3813,"EPHEMERIS_TYPE":0,"CLASSIFICATION_TYPE":"U","NORAD_CAT_ID":44241,"ELEMENT_SET_NO":999,"REV_AT_EPOCH":7502,"BSTAR":0.00090269,"MEAN_MOTION_DOT":0.27533098,"MEAN_MOTION_DDOT":0.000012522,"SEMIMAJOR_AXIS":6531.919,"PERIOD":87.563,"APOAPSIS":157.058,"PERIAPSIS":150.509,"OBJECT_TYPE":"PAYLOAD","RCS_SIZE":"LARGE","COUNTRY_CODE":"US","LAUNCH_DATE":"2019-05-24","SITE":"AFETR","DECAY_DATE":"2020-09-26","DECAYED":1,"FILE":2834145,"GP_ID":162165742,"TLE_LINE0":"0
        STARLINK-27","TLE_LINE1":"1 44241U 19029G   20269.99889552  .27533098  12522-4  90269-3
        0  9992","TLE_LINE2":"2 44241  52.9952  62.9276 0005013 292.5876  67.3813
        16.44528987 75025"},"version":"v0.9","launch":"5eb87d30ffd86e000604b378","longitude":null,"latitude":null,"height_km":null,"velocity_kms":null,"id":"5eed770f096e590006985614"},{"spaceTrack":{"CCSDS_OMM_VERS":"2.0","COMMENT":"GENERATED
        VIA SPACE-TRACK.ORG API","CREATION_DATE":"2020-08-23T05:06:09","ORIGINATOR":"18
        SPCS","OBJECT_NAME":"STARLINK-58","OBJECT_ID":"2019-029AM","CENTER_NAME":"EARTH","REF_FRAME":"TEME","TIME_SYSTEM":"UTC","MEAN_ELEMENT_THEORY":"SGP4","EPOCH":"2020-08-23T03:09:46.298304","MEAN_MOTION":16.49769755,"ECCENTRICITY":0.0010115,"INCLINATION":53.006,"RA_OF_ASC_NODE":191.4104,"ARG_OF_PERICENTER":188.7689,"MEAN_ANOMALY":171.4914,"EPHEMERIS_TYPE":0,"CLASSIFICATION_TYPE":"U","NORAD_CAT_ID":44270,"ELEMENT_SET_NO":999,"REV_AT_EPOCH":7027,"BSTAR":0.0001307,"MEAN_MOTION_DOT":0.12051508,"MEAN_MOTION_DDOT":0.000012468,"SEMIMAJOR_AXIS":6518.078,"PERIOD":87.284,"APOAPSIS":146.536,"PERIAPSIS":133.35,"OBJECT_TYPE":"PAYLOAD","RCS_SIZE":"LARGE","COUNTRY_CODE":"US","LAUNCH_DATE":"2019-05-24","SITE":"AFETR","DECAY_DATE":"2020-08-23","DECAYED":1,"FILE":2806775,"GP_ID":159934884,"TLE_LINE0":"0
        STARLINK-58","TLE_LINE1":"1 44270U 19029AM  20236.13178586  .12051508  12468-4  13070-3
        0  9991","TLE_LINE2":"2 44270  53.0060 191.4104 0010115 188.7689 171.4914
        16.49769755 70270"},"version":"v0.9","launch":"5eb87d30ffd86e000604b378","longitude":null,"latitude":null,"height_km":null,"velocity_kms":null,"id":"5eed770f096e590006985615"},{"spaceTrack":{"CCSDS_OMM_VERS":"2.0","COMMENT":"GENERATED
        VIA SPACE-TRACK.ORG API","CREATION_DATE":"2020-08-29T09:36:09","ORIGINATOR":"18
        SPCS","OBJECT_NAME":"TINTIN A","OBJECT_ID":"2018-020B","CENTER_NAME":"EARTH","REF_FRAME":"TEME","TIME_SYSTEM":"UTC","MEAN_ELEMENT_THEORY":"SGP4","EPOCH":"2020-08-29T07:40:05.480832","MEAN_MOTION":16.40201759,"ECCENTRICITY":0.0015282,"INCLINATION":97.4245,"RA_OF_ASC_NODE":260.1382,"ARG_OF_PERICENTER":265.467,"MEAN_ANOMALY":95.5903,"EPHEMERIS_TYPE":0,"CLASSIFICATION_TYPE":"U","NORAD_CAT_ID":43216,"ELEMENT_SET_NO":999,"REV_AT_EPOCH":14020,"BSTAR":0.0016505,"MEAN_MOTION_DOT":0.26379725,"MEAN_MOTION_DDOT":0.000002565,"SEMIMAJOR_AXIS":6543.402,"PERIOD":87.794,"APOAPSIS":175.267,"PERIAPSIS":155.268,"OBJECT_TYPE":"PAYLOAD","RCS_SIZE":"LARGE","COUNTRY_CODE":"US","LAUNCH_DATE":"2018-02-22","SITE":"AFWTR","DECAY_DATE":"2020-08-29","DECAYED":1,"FILE":2810670,"GP_ID":160342842,"TLE_LINE0":"0
        TINTIN A","TLE_LINE1":"1 43216U 18020B   20242.31950788  .26379725  25650-5  16505-2
        0  9991","TLE_LINE2":"2 43216  97.4245 260.1382 0015282 265.4670  95.5903
        16.40201759140202"},"version":"prototype","launch":"5eb87d14ffd86e000604b361","longitude":null,"latitude":null,"height_km":null,"velocity_kms":null,"id":"5eed770f096e590006985616"}],"totalDocs":1445,"offset":0,"limit":10,"totalPages":145,"page":1,"pagingCounter":1,"hasPrevPage":false,"hasNextPage":true,"prevPage":null,"nextPage":2}'
  recorded_at: Thu, 22 Apr 2021 03:01:41 GMT
recorded_with: VCR 6.0.0
